CCSDS_OMM_VERS = 2.0
CREATION_DATE  = 
ORIGINATOR     = 

OBJECT_NAME    = RSP-03
OBJECT_ID      = 1998-067XL
CENTER_NAME    = EARTH
REF_FRAME      = TEME
TIME_SYSTEM    = UTC
MEAN_ELEMENT_THEORY = SGP/SGP4

EPOCH          = 2026-02-02T12:48:23.350176
MEAN_MOTION    = 15.93927715
ECCENTRICITY   = .00052629
INCLINATION    = 51.6167
RA_OF_ASC_NODE = 228.8006
ARG_OF_PERICENTER = 238.7249
MEAN_ANOMALY   = 121.3243

EPHEMERIS_TYPE = 0
CLASSIFICATION_TYPE = U
NORAD_CAT_ID   = 65732
ELEMENT_SET_NO = 999
REV_AT_EPOCH   = 2134
BSTAR          = .13230504E-2
MEAN_MOTION_DOT = .495574E-2
MEAN_MOTION_DDOT = .1089599E-3

CCSDS_OMM_VERS = 2.0
CREATION_DATE  = 
ORIGINATOR     = 

OBJECT_NAME    = YOTSUBA-KULOVER
OBJECT_ID      = 1998-067XN
CENTER_NAME    = EARTH
REF_FRAME      = TEME
TIME_SYSTEM    = UTC
MEAN_ELEMENT_THEORY = SGP/SGP4

EPOCH          = 2026-02-02T12:56:13.022304
MEAN_MOTION    = 15.69250811
ECCENTRICITY   = .00042
INCLINATION    = 51.6238
RA_OF_ASC_NODE = 237.9326
ARG_OF_PERICENTER = 208.3499
MEAN_ANOMALY   = 151.7270

EPHEMERIS_TYPE = 0
CLASSIFICATION_TYPE = U
NORAD_CAT_ID   = 65941
ELEMENT_SET_NO = 999
REV_AT_EPOCH   = 1796
BSTAR          = .9092182E-3
MEAN_MOTION_DOT = .109133E-2
MEAN_MOTION_DDOT = 0

CCSDS_OMM_VERS = 2.0
CREATION_DATE  = 
ORIGINATOR     = 

OBJECT_NAME    = BOTAN
OBJECT_ID      = 1998-067XP
CENTER_NAME    = EARTH
REF_FRAME      = TEME
TIME_SYSTEM    = UTC
MEAN_ELEMENT_THEORY = SGP/SGP4

EPOCH          = 2026-02-02T12:36:34.648128
MEAN_MOTION    = 15.80512064
ECCENTRICITY   = .00055274
INCLINATION    = 51.6178
RA_OF_ASC_NODE = 234.8063
ARG_OF_PERICENTER = 226.6486
MEAN_ANOMALY   = 133.4055

EPHEMERIS_TYPE = 0
CLASSIFICATION_TYPE = U
NORAD_CAT_ID   = 65942
ELEMENT_SET_NO = 999
REV_AT_EPOCH   = 1800
BSTAR          = .13748996E-2
MEAN_MOTION_DOT = .275567E-2
MEAN_MOTION_DDOT = 0

CCSDS_OMM_VERS = 2.0
CREATION_DATE  = 
ORIGINATOR     = 

OBJECT_NAME    = E-KAGAKU-1
OBJECT_ID      = 1998-067XQ
CENTER_NAME    = EARTH
REF_FRAME      = TEME
TIME_SYSTEM    = UTC
MEAN_ELEMENT_THEORY = SGP/SGP4

EPOCH          = 2026-02-02T14:28:33.635712
MEAN_MOTION    = 15.69186558
ECCENTRICITY   = .00032096
INCLINATION    = 51.6258
RA_OF_ASC_NODE = 237.6202
ARG_OF_PERICENTER = 222.3729
MEAN_ANOMALY   = 137.7021

EPHEMERIS_TYPE = 0
CLASSIFICATION_TYPE = U
NORAD_CAT_ID   = 65943
ELEMENT_SET_NO = 999
REV_AT_EPOCH   = 1797
BSTAR          = .89834931E-3
MEAN_MOTION_DOT = .107496E-2
MEAN_MOTION_DDOT = 0

CCSDS_OMM_VERS = 2.0
CREATION_DATE  = 
ORIGINATOR     = 

OBJECT_NAME    = HRC MONOBLOCK CAMERA
OBJECT_ID      = 1998-067XR
CENTER_NAME    = EARTH
REF_FRAME      = TEME
TIME_SYSTEM    = UTC
MEAN_ELEMENT_THEORY = SGP/SGP4

EPOCH          = 2026-02-02T14:28:07.297536
MEAN_MOTION    = 15.58579297
ECCENTRICITY   = .00003256
INCLINATION    = 51.6273
RA_OF_ASC_NODE = 242.1168
ARG_OF_PERICENTER = 15.4535
MEAN_ANOMALY   = 344.6467

EPHEMERIS_TYPE = 0
CLASSIFICATION_TYPE = U
NORAD_CAT_ID   = 66052
ELEMENT_SET_NO = 999
REV_AT_EPOCH   = 1691
BSTAR          = .56841785E-3
MEAN_MOTION_DOT = .44128E-3
MEAN_MOTION_DDOT = 0

CCSDS_OMM_VERS = 2.0
CREATION_DATE  = 
ORIGINATOR     = 

OBJECT_NAME    = HTV-X1
OBJECT_ID      = 2025-241A
CENTER_NAME    = EARTH
REF_FRAME      = TEME
TIME_SYSTEM    = UTC
MEAN_ELEMENT_THEORY = SGP/SGP4

EPOCH          = 2026-02-02T12:47:52.857888
MEAN_MOTION    = 15.48343227
ECCENTRICITY   = .00111084
INCLINATION    = 51.6312
RA_OF_ASC_NODE = 246.1482
ARG_OF_PERICENTER = 57.0277
MEAN_ANOMALY   = 303.1777

EPHEMERIS_TYPE = 0
CLASSIFICATION_TYPE = U
NORAD_CAT_ID   = 66174
ELEMENT_SET_NO = 999
REV_AT_EPOCH   = 51
BSTAR          = .18248934E-3
MEAN_MOTION_DOT = .9405E-4
MEAN_MOTION_DDOT = 0

CCSDS_OMM_VERS = 2.0
CREATION_DATE  = 
ORIGINATOR     = 

OBJECT_NAME    = SZ-21 MODULE
OBJECT_ID      = 2025-246C
CENTER_NAME    = EARTH
REF_FRAME      = TEME
TIME_SYSTEM    = UTC
MEAN_ELEMENT_THEORY = SGP/SGP4

EPOCH          = 2026-02-02T10:49:29.189856
MEAN_MOTION    = 15.65879972
ECCENTRICITY   = .00033194
INCLINATION    = 41.4757
RA_OF_ASC_NODE = 59.8384
ARG_OF_PERICENTER = 268.1734
MEAN_ANOMALY   = 91.8727

EPHEMERIS_TYPE = 0
CLASSIFICATION_TYPE = U
NORAD_CAT_ID   = 66515
ELEMENT_SET_NO = 999
REV_AT_EPOCH   = 1254
BSTAR          = .31087655E-3
MEAN_MOTION_DOT = .32344E-3
MEAN_MOTION_DDOT = 0

CCSDS_OMM_VERS = 2.0
CREATION_DATE  = 
ORIGINATOR     = 

OBJECT_NAME    = SHENZHOU-22
OBJECT_ID      = 2025-272A
CENTER_NAME    = EARTH
REF_FRAME      = TEME
TIME_SYSTEM    = UTC
MEAN_ELEMENT_THEORY = SGP/SGP4

EPOCH          = 2026-02-02T12:03:08.571456
MEAN_MOTION    = 15.59105413
ECCENTRICITY   = .00063887
INCLINATION    = 41.4673
RA_OF_ASC_NODE = 62.0121
ARG_OF_PERICENTER = 343.4134
MEAN_ANOMALY   = 16.6494

EPHEMERIS_TYPE = 0
CLASSIFICATION_TYPE = U
NORAD_CAT_ID   = 66645
ELEMENT_SET_NO = 999
REV_AT_EPOCH   = 26764
BSTAR          = .18189296E-3
MEAN_MOTION_DOT = .14324E-3
MEAN_MOTION_DDOT = 0

CCSDS_OMM_VERS = 2.0
CREATION_DATE  = 
ORIGINATOR     = 

OBJECT_NAME    = SOYUZ-MS 28
OBJECT_ID      = 2025-275A
CENTER_NAME    = EARTH
REF_FRAME      = TEME
TIME_SYSTEM    = UTC
MEAN_ELEMENT_THEORY = SGP/SGP4

EPOCH          = 2026-02-02T12:47:52.857888
MEAN_MOTION    = 15.48343227
ECCENTRICITY   = .00111084
INCLINATION    = 51.6312
RA_OF_ASC_NODE = 246.1482
ARG_OF_PERICENTER = 57.0277
MEAN_ANOMALY   = 303.1777

EPHEMERIS_TYPE = 0
CLASSIFICATION_TYPE = U
NORAD_CAT_ID   = 66664
ELEMENT_SET_NO = 999
REV_AT_EPOCH   = 128
BSTAR          = .18248934E-3
MEAN_MOTION_DOT = .9405E-4
MEAN_MOTION_DDOT = 0

CCSDS_OMM_VERS = 2.0
CREATION_DATE  = 
ORIGINATOR     = 

OBJECT_NAME    = DUPLEX
OBJECT_ID      = 1998-067XS
CENTER_NAME    = EARTH
REF_FRAME      = TEME
TIME_SYSTEM    = UTC
MEAN_ELEMENT_THEORY = SGP/SGP4

EPOCH          = 2026-02-02T13:27:09.270144
MEAN_MOTION    = 15.53727587
ECCENTRICITY   = .00015789
INCLINATION    = 51.6284
RA_OF_ASC_NODE = 244.8336
ARG_OF_PERICENTER = 83.4963
MEAN_ANOMALY   = 276.6207

EPHEMERIS_TYPE = 0
CLASSIFICATION_TYPE = U
NORAD_CAT_ID   = 66906
ELEMENT_SET_NO = 999
REV_AT_EPOCH   = 966
BSTAR          = .43981501E-3
MEAN_MOTION_DOT = .28318E-3
MEAN_MOTION_DDOT = 0

CCSDS_OMM_VERS = 2.0
CREATION_DATE  = 
ORIGINATOR     = 

OBJECT_NAME    = 1998-067XT
OBJECT_ID      = 1998-067XT
CENTER_NAME    = EARTH
REF_FRAME      = TEME
TIME_SYSTEM    = UTC
MEAN_ELEMENT_THEORY = SGP/SGP4

EPOCH          = 2026-02-01T23:59:16.296288
MEAN_MOTION    = 15.60110214
ECCENTRICITY   = .00027037
INCLINATION    = 51.6262
RA_OF_ASC_NODE = 246.3359
ARG_OF_PERICENTER = 169.0927
MEAN_ANOMALY   = 191.0125

EPHEMERIS_TYPE = 0
CLASSIFICATION_TYPE = U
NORAD_CAT_ID   = 66907
ELEMENT_SET_NO = 999
REV_AT_EPOCH   = 959
BSTAR          = .95066741E-3
MEAN_MOTION_DOT = .78957E-3
MEAN_MOTION_DDOT = 0

CCSDS_OMM_VERS = 2.0
CREATION_DATE  = 
ORIGINATOR     = 

OBJECT_NAME    = 1998-067XU
OBJECT_ID      = 1998-067XU
CENTER_NAME    = EARTH
REF_FRAME      = TEME
TIME_SYSTEM    = UTC
MEAN_ELEMENT_THEORY = SGP/SGP4

EPOCH          = 2026-02-01T23:58:39.340416
MEAN_MOTION    = 15.60143030
ECCENTRICITY   = .00025881
INCLINATION    = 51.6258
RA_OF_ASC_NODE = 246.3309
ARG_OF_PERICENTER = 170.0910
MEAN_ANOMALY   = 190.0135

EPHEMERIS_TYPE = 0
CLASSIFICATION_TYPE = U
NORAD_CAT_ID   = 66908
ELEMENT_SET_NO = 999
REV_AT_EPOCH   = 959
BSTAR          = .99129319E-3
MEAN_MOTION_DOT = .82493E-3
MEAN_MOTION_DDOT = 0

